start=new Date('2022-05-06T00:00:00.000Z').valueOf();
sats=[{"PERIAPSIS":"545.823","RCS_SIZE":"LARGE","COUNTRY_CODE":"US","ARG_OF_PERICENTER":"50.1690","INCLINATION":"53.0548","REF_FRAME":"TEME","OBJECT_NAME":"STARLINK-2398","DECAY_DATE":null,"PERIOD":"95.592","OBJECT_TYPE":"PAYLOAD","FILE":"3430353","LAUNCH_DATE":"2021-03-14","MEAN_MOTION_DOT":"0.00001564","OBJECT_ID":"2021-021BL","MEAN_ANOMALY":"309.9475","RA_OF_ASC_NODE":"96.6355","REV_AT_EPOCH":"6450","SITE":"AFETR","ECCENTRICITY":"0.00020080","NORAD_CAT_ID":"47918","EPOCH":"2022-05-05T04:44:31.369056","MEAN_MOTION_DDOT":"0.0000000000000","TIME_SYSTEM":"UTC","TLE_LINE2":"2 47918  53.0548  96.6355 0002008  50.1690 309.9475 15.06399916 64502","CLASSIFICATION_TYPE":"U","EPHEMERIS_TYPE":"0","APOAPSIS":"548.604","TLE_LINE1":"1 47918U 21021BL  22125.19758529  .00001564  00000-0  12389-3 0  9995","ELEMENT_SET_NO":"999","SEMIMAJOR_AXIS":"6925.349","GP_ID":"202768487","BSTAR":"0.00012389000000","MEAN_MOTION":"15.06399916","CENTER_NAME":"EARTH","MEAN_ELEMENT_THEORY":"SGP4"},{"NORAD_CAT_ID":"47919","ECCENTRICITY":"0.00026030","MEAN_MOTION_DDOT":"0.0000000000000","EPOCH":"2022-05-05T15:30:44.945856","MEAN_ANOMALY":"318.2339","REV_AT_EPOCH":"6441","SITE":"AFETR","RA_OF_ASC_NODE":"104.6025","TIME_SYSTEM":"UTC","TLE_LINE2":"2 47919  53.0556 104.6025 0002603  41.8849 318.2339 15.06399059 64410","CLASSIFICATION_TYPE":"U","GP_ID":"202803946","SEMIMAJOR_AXIS":"6925.351","TLE_LINE1":"1 47919U 21021BM  22125.64635354  .00001447  00000-0  11604-3 0  9995","ELEMENT_SET_NO":"999","EPHEMERIS_TYPE":"0","APOAPSIS":"549.019","CENTER_NAME":"EARTH","MEAN_ELEMENT_THEORY":"SGP4","BSTAR":"0.00011604000000","MEAN_MOTION":"15.06399059","REF_FRAME":"TEME","INCLINATION":"53.0556","OBJECT_NAME":"STARLINK-2405","COUNTRY_CODE":"US","PERIAPSIS":"545.414","RCS_SIZE":"LARGE","ARG_OF_PERICENTER":"41.8849","PERIOD":"95.592","OBJECT_TYPE":"PAYLOAD","DECAY_DATE":null,"FILE":"3430750","LAUNCH_DATE":"2021-03-14","MEAN_MOTION_DOT":"0.00001447","OBJECT_ID":"2021-021BM"},{"BSTAR":"0.00007772000000","MEAN_MOTION":"15.06403183","CENTER_NAME":"EARTH","MEAN_ELEMENT_THEORY":"SGP4","TLE_LINE1":"1 47977U 21024A   22125.45607319  .00000876  00000-0  77720-4 0  9998","ELEMENT_SET_NO":"999","EPHEMERIS_TYPE":"0","APOAPSIS":"548.600","SEMIMAJOR_AXIS":"6925.339","GP_ID":"202768243","TIME_SYSTEM":"UTC","CLASSIFICATION_TYPE":"U","TLE_LINE2":"2 47977  53.0548 150.4668 0002016  49.6014 310.5151 15.06403183 63055","MEAN_ANOMALY":"310.5151","SITE":"AFETR","REV_AT_EPOCH":"6305","RA_OF_ASC_NODE":"150.4668","ECCENTRICITY":"0.00020160","NORAD_CAT_ID":"47977","MEAN_MOTION_DDOT":"0.0000000000000","EPOCH":"2022-05-05T10:56:44.723616","OBJECT_ID":"2021-024A","FILE":"3430353","LAUNCH_DATE":"2021-03-24","MEAN_MOTION_DOT":"0.00000876","DECAY_DATE":null,"PERIOD":"95.592","OBJECT_TYPE":"PAYLOAD","COUNTRY_CODE":"US","PERIAPSIS":"545.808","RCS_SIZE":"LARGE","ARG_OF_PERICENTER":"49.6014","REF_FRAME":"TEME","INCLINATION":"53.0548","OBJECT_NAME":"STARLINK-2087"},{"LAUNCH_DATE":"2021-03-24","FILE":"3430750","MEAN_MOTION_DOT":"0.00001550","OBJECT_ID":"2021-024B","REF_FRAME":"TEME","INCLINATION":"53.0535","OBJECT_NAME":"STARLINK-1647","COUNTRY_CODE":"US","PERIAPSIS":"545.886","RCS_SIZE":"LARGE","ARG_OF_PERICENTER":"49.7842","PERIOD":"95.592","OBJECT_TYPE":"PAYLOAD","DECAY_DATE":null,"GP_ID":"202803202","SEMIMAJOR_AXIS":"6925.341","TLE_LINE1":"1 47978U 21024B   22125.80900325  .00001550  00000-0  12292-3 0  9993","ELEMENT_SET_NO":"999","APOAPSIS":"548.526","EPHEMERIS_TYPE":"0","CENTER_NAME":"EARTH","MEAN_ELEMENT_THEORY":"SGP4","BSTAR":"0.00012292000000","MEAN_MOTION":"15.06402340","ECCENTRICITY":"0.00019060","NORAD_CAT_ID":"47978","MEAN_MOTION_DDOT":"0.0000000000000","EPOCH":"2022-05-05T19:24:57.880800","MEAN_ANOMALY":"310.3314","SITE":"AFETR","REV_AT_EPOCH":"6296","RA_OF_ASC_NODE":"158.8769","TIME_SYSTEM":"UTC","CLASSIFICATION_TYPE":"U","TLE_LINE2":"2 47978  53.0535 158.8769 0001906  49.7842 310.3314 15.06402340 62965"},{"OBJECT_ID":"2021-024C","LAUNCH_DATE":"2021-03-24","FILE":"3430750","MEAN_MOTION_DOT":"-0.00006763","DECAY_DATE":null,"PERIOD":"95.592","OBJECT_TYPE":"PAYLOAD","RCS_SIZE":"LARGE","PERIAPSIS":"545.986","COUNTRY_CODE":"US","ARG_OF_PERICENTER":"52.0284","INCLINATION":"53.0544","REF_FRAME":"TEME","OBJECT_NAME":"STARLINK-2325","BSTAR":"-0.00043559000000","MEAN_MOTION":"15.06395526","CENTER_NAME":"EARTH","MEAN_ELEMENT_THEORY":"SGP4","APOAPSIS":"548.468","EPHEMERIS_TYPE":"0","TLE_LINE1":"1 47979U 21024C   22125.91667824 -.00006763  00000-0 -43559-3 0  9993","ELEMENT_SET_NO":"999","SEMIMAJOR_AXIS":"6925.362","GP_ID":"202803455","TIME_SYSTEM":"UTC","TLE_LINE2":"2 47979  53.0544  93.3880 0001792  52.0284 155.0340 15.06395526  3610","CLASSIFICATION_TYPE":"U","MEAN_ANOMALY":"155.0340","RA_OF_ASC_NODE":"93.3880","SITE":"AFETR","REV_AT_EPOCH":"361","ECCENTRICITY":"0.00017920","NORAD_CAT_ID":"47979","EPOCH":"2022-05-05T22:00:00.999936","MEAN_MOTION_DDOT":"0.0000000000000"},{"MEAN_MOTION":"15.06393952","BSTAR":"0.00020329000000","MEAN_ELEMENT_THEORY":"SGP4","CENTER_NAME":"EARTH","ELEMENT_SET_NO":"999","TLE_LINE1":"1 47980U 21024D   22125.91667824  .00002747  00000-0  20329-3 0  9991","APOAPSIS":"548.491","EPHEMERIS_TYPE":"0","SEMIMAJOR_AXIS":"6925.367","GP_ID":"202804194","TLE_LINE2":"2 47980  53.0553  73.4103 0001818  47.2275 109.8036 15.06393952  3614","CLASSIFICATION_TYPE":"U","TIME_SYSTEM":"UTC","REV_AT_EPOCH":"361","SITE":"AFETR","RA_OF_ASC_NODE":"73.4103","MEAN_ANOMALY":"109.8036","MEAN_MOTION_DDOT":"0.0000000000000","EPOCH":"2022-05-05T22:00:00.999936","NORAD_CAT_ID":"47980","ECCENTRICITY":"0.00018180","OBJECT_ID":"2021-024D","LAUNCH_DATE":"2021-03-24","FILE":"3430750","MEAN_MOTION_DOT":"0.00002747","DECAY_DATE":null,"PERIOD":"95.593","OBJECT_TYPE":"PAYLOAD","ARG_OF_PERICENTER":"47.2275","COUNTRY_CODE":"US","PERIAPSIS":"545.973","RCS_SIZE":"LARGE","OBJECT_NAME":"STARLINK-2312","REF_FRAME":"TEME","INCLINATION":"53.0553"},{"MEAN_ANOMALY":"313.9664","RA_OF_ASC_NODE":"158.9313","SITE":"AFETR","REV_AT_EPOCH":"6296","ECCENTRICITY":"0.00019740","NORAD_CAT_ID":"47981","EPOCH":"2022-05-05T19:09:02.656224","MEAN_MOTION_DDOT":"0.0000000000000","TIME_SYSTEM":"UTC","TLE_LINE2":"2 47981  53.0519 158.9313 0001974  46.1488 313.9664 15.06403308 62961","CLASSIFICATION_TYPE":"U","EPHEMERIS_TYPE":"0","APOAPSIS":"548.570","TLE_LINE1":"1 47981U 21024E   22125.79794741  .00003127  00000-0  22875-3 0  9998","ELEMENT_SET_NO":"999","SEMIMAJOR_AXIS":"6925.338","GP_ID":"202802952","BSTAR":"0.00022875000000","MEAN_MOTION":"15.06403308","CENTER_NAME":"EARTH","MEAN_ELEMENT_THEORY":"SGP4","PERIAPSIS":"545.836","RCS_SIZE":"LARGE","COUNTRY_CODE":"US","ARG_OF_PERICENTER":"46.1488","INCLINATION":"53.0519","REF_FRAME":"TEME","OBJECT_NAME":"STARLINK-2303","DECAY_DATE":null,"OBJECT_TYPE":"PAYLOAD","PERIOD":"95.592","FILE":"3430750","LAUNCH_DATE":"2021-03-24","MEAN_MOTION_DOT":"0.00003127","OBJECT_ID":"2021-024E"},{"OBJECT_ID":"2021-024F","LAUNCH_DATE":"2021-03-24","FILE":"3430750","MEAN_MOTION_DOT":"0.00036900","PERIOD":"95.594","OBJECT_TYPE":"PAYLOAD","DECAY_DATE":null,"OBJECT_NAME":"STARLINK-2317","INCLINATION":"53.0545","REF_FRAME":"TEME","ARG_OF_PERICENTER":"36.5563","PERIAPSIS":"545.589","RCS_SIZE":"LARGE","COUNTRY_CODE":"US","MEAN_ELEMENT_THEORY":"SGP4","CENTER_NAME":"EARTH","MEAN_MOTION":"15.06373276","BSTAR":"0.00248490000000","SEMIMAJOR_AXIS":"6925.430","GP_ID":"202802704","EPHEMERIS_TYPE":"0","APOAPSIS":"549.002","TLE_LINE1":"1 47982U 21024F   22125.91667824  .00036900  00000-0  24849-2 0  9991","ELEMENT_SET_NO":"999","TLE_LINE2":"2 47982  53.0545  88.3946 0002464  36.5563 352.8177 15.06373276  3619","CLASSIFICATION_TYPE":"U","TIME_SYSTEM":"UTC","EPOCH":"2022-05-05T22:00:00.999936","MEAN_MOTION_DDOT":"0.0000000000000","ECCENTRICITY":"0.00024640","NORAD_CAT_ID":"47982","RA_OF_ASC_NODE":"88.3946","REV_AT_EPOCH":"361","SITE":"AFETR","MEAN_ANOMALY":"352.8177"},{"COUNTRY_CODE":"US","PERIAPSIS":"546.011","RCS_SIZE":"LARGE","ARG_OF_PERICENTER":"61.4337","REF_FRAME":"TEME","INCLINATION":"53.0553","OBJECT_NAME":"STARLINK-2308","DECAY_DATE":null,"PERIOD":"95.591","OBJECT_TYPE":"PAYLOAD","MEAN_MOTION_DOT":"-0.00032182","FILE":"3430750","LAUNCH_DATE":"2021-03-24","OBJECT_ID":"2021-024J","MEAN_ANOMALY":"25.5979","SITE":"AFETR","REV_AT_EPOCH":"361","RA_OF_ASC_NODE":"93.4109","NORAD_CAT_ID":"47985","ECCENTRICITY":"0.00016510","MEAN_MOTION_DDOT":"0.0000000000000","EPOCH":"2022-05-05T22:00:00.999936","TIME_SYSTEM":"UTC","CLASSIFICATION_TYPE":"U","TLE_LINE2":"2 47985  53.0553  93.4109 0001651  61.4337  25.5979 15.06419178  3618","TLE_LINE1":"1 47985U 21024J   22125.91667824 -.00032182  00000-0 -21502-2 0  9997","ELEMENT_SET_NO":"999","EPHEMERIS_TYPE":"0","APOAPSIS":"548.298","SEMIMAJOR_AXIS":"6925.290","GP_ID":"202803953","BSTAR":"-0.00215020000000","MEAN_MOTION":"15.06419178","CENTER_NAME":"EARTH","MEAN_ELEMENT_THEORY":"SGP4"},{"MEAN_ELEMENT_THEORY":"SGP4","CENTER_NAME":"EARTH","MEAN_MOTION":"15.95058745","BSTAR":"-0.00211550000000","SEMIMAJOR_AXIS":"6666.288","GP_ID":"202803696","TLE_LINE1":"1 47988U 21024M   22125.91667824 -.00847217  23388-3 -21155-2 0  9994","ELEMENT_SET_NO":"999","APOAPSIS":"288.397","EPHEMERIS_TYPE":"0","CLASSIFICATION_TYPE":"U","TLE_LINE2":"2 47988  53.0549  90.1155 0000367 184.1708 258.7087 15.95058745  3739","TIME_SYSTEM":"UTC","MEAN_MOTION_DDOT":"0.0002338800000","EPOCH":"2022-05-05T22:00:00.999936","NORAD_CAT_ID":"47988","ECCENTRICITY":"0.00003670","SITE":"AFETR","REV_AT_EPOCH":"373","RA_OF_ASC_NODE":"90.1155","MEAN_ANOMALY":"258.7087","OBJECT_ID":"2021-024M","FILE":"3430750","LAUNCH_DATE":"2021-03-24","MEAN_MOTION_DOT":"-0.00847217","OBJECT_TYPE":"PAYLOAD","PERIOD":"90.279","DECAY_DATE":null,"OBJECT_NAME":"STARLINK-2306","REF_FRAME":"TEME","INCLINATION":"53.0549","ARG_OF_PERICENTER":"184.1708","COUNTRY_CODE":"US","PERIAPSIS":"287.908","RCS_SIZE":"LARGE"}];
